{
  "norad_id": 65128,
  "name": "GEESAT-4 10",
  "history": [
    {
      "epoch": "2026-03-27T20:38:59.957952",
      "apogee_km": 620.7105852739696,
      "perigee_km": 576.1846270006808,
      "latitude_deg": -42.34119596945899,
      "longitude_deg": -40.60004671989009,
      "semi_major_axis_km": 6976.584606137325,
      "eccentricity": 0.0031911,
      "inclination_deg": 49.9734,
      "raan_deg": 143.6847,
      "arg_perigee_deg": 343.3468,
      "mean_anomaly_deg": 16.6422,
      "mean_motion_rev_day": 14.89835999
    }
  ]
}